{
    "links": {
        "self": "http://www.neowsapp.com/rest/v1/neo/3144154?api_key=iIulBulltgU6a56xZRHN4H3l9WmuAYTsLGpBGhQ2"
    },
    "id": "3144154",
    "neo_reference_id": "3144154",
    "name": "(2002 XM35)",
    "designation": "2002 XM35",
    "nasa_jpl_url": "http://ssd.jpl.nasa.gov/sbdb.cgi?sstr=3144154",
    "absolute_magnitude_h": 22.958,
    "estimated_diameter": {
        "kilometers": {
            "estimated_diameter_min": 0.0680698787,
            "estimated_diameter_max": 0.152208876
        },
        "meters": {
            "estimated_diameter_min": 68.069878686,
            "estimated_diameter_max": 152.2088759621
        },
        "miles": {
            "estimated_diameter_min": 0.0422966486,
            "estimated_diameter_max": 0.0945781815
        },
        "feet": {
            "estimated_diameter_min": 223.3263807883,
            "estimated_diameter_max": 499.3729686116
        }
    },
    "is_potentially_hazardous_asteroid": false,
    "close_approach_data": [
        {
            "close_approach_date": "2002-12-06",
            "close_approach_date_full": "2002-Dec-06 08:41",
            "epoch_date_close_approach": 1039164060000,
            "relative_velocity": {
                "kilometers_per_second": "26.8819290793",
                "kilometers_per_hour": "96774.9446856514",
                "miles_per_hour": "60132.1871575926"
            },
            "miss_distance": {
                "astronomical": "0.0510393182",
                "lunar": "19.8542947798",
                "kilometers": "7635373.288972234",
                "miles": "4744400.9609714692"
            },
            "orbiting_body": "Earth"
        }
    ],
    "orbital_data": {
        "orbit_id": "7",
        "orbit_determination_date": "2017-04-06 09:14:32",
        "first_observation_date": "2002-12-01",
        "last_observation_date": "2002-12-02",
        "data_arc_in_days": 1,
        "observations_used": 9,
        "orbit_uncertainty": "9",
        "minimum_orbit_intersection": ".019573",
        "jupiter_tisserand_invariant": "2.958",
        "epoch_osculation": "2452610.5",
        "eccentricity": ".8387478289446383",
        "semi_major_axis": "2.334056056521213",
        "inclination": "3.063279767453017",
        "ascending_node_longitude": "229.9635215891961",
        "orbital_period": "1302.462866018525",
        "perihelion_distance": ".3763716064789617",
        "perihelion_argument": "312.6386145352662",
        "aphelion_distance": "4.291740506563465",
        "perihelion_time": "2452657.459046726862",
        "mean_anomaly": "347.0205460265077",
        "mean_motion": ".276399434788093",
        "equinox": "J2000",
        "orbit_class": {
            "orbit_class_type": "APO",
            "orbit_class_description": "Near-Earth asteroid orbits which cross the Earth’s orbit similar to that of 1862 Apollo",
            "orbit_class_range": "a (semi-major axis) > 1.0 AU; q (perihelion) < 1.017 AU"
        }
    },
    "is_sentry_object": false
}